{
    "links": {
        "self": "http://www.neowsapp.com/rest/v1/neo/3408128?api_key=iIulBulltgU6a56xZRHN4H3l9WmuAYTsLGpBGhQ2"
    },
    "id": "3408128",
    "neo_reference_id": "3408128",
    "name": "(2008 GQ)",
    "designation": "2008 GQ",
    "nasa_jpl_url": "http://ssd.jpl.nasa.gov/sbdb.cgi?sstr=3408128",
    "absolute_magnitude_h": 24.9,
    "estimated_diameter": {
        "kilometers": {
            "estimated_diameter_min": 0.0278326768,
            "estimated_diameter_max": 0.0622357573
        },
        "meters": {
            "estimated_diameter_min": 27.8326768072,
            "estimated_diameter_max": 62.2357573367
        },
        "miles": {
            "estimated_diameter_min": 0.0172944182,
            "estimated_diameter_max": 0.0386714948
        },
        "feet": {
            "estimated_diameter_min": 91.3145593761,
            "estimated_diameter_max": 204.1855621004
        }
    },
    "is_potentially_hazardous_asteroid": false,
    "close_approach_data": [
        {
            "close_approach_date": "2008-03-23",
            "close_approach_date_full": "2008-Mar-23 12:31",
            "epoch_date_close_approach": 1206275460000,
            "relative_velocity": {
                "kilometers_per_second": "4.8254051134",
                "kilometers_per_hour": "17371.4584082401",
                "miles_per_hour": "10793.9486981645"
            },
            "miss_distance": {
                "astronomical": "0.0776844132",
                "lunar": "30.2192367348",
                "kilometers": "11621422.746919884",
                "miles": "7221217.2426430392"
            },
            "orbiting_body": "Earth"
        }
    ],
    "orbital_data": {
        "orbit_id": "8",
        "orbit_determination_date": "2017-04-06 09:03:49",
        "first_observation_date": "2008-04-03",
        "last_observation_date": "2008-04-09",
        "data_arc_in_days": 6,
        "observations_used": 35,
        "orbit_uncertainty": "8",
        "minimum_orbit_intersection": ".0765585",
        "jupiter_tisserand_invariant": "4.107",
        "epoch_osculation": "2454560.5",
        "eccentricity": ".374482835092046",
        "semi_major_axis": "1.706911386250397",
        "inclination": "4.875808254373979",
        "ascending_node_longitude": "14.26484134048888",
        "orbital_period": "814.5446396725466",
        "perihelion_distance": "1.067702371076454",
        "perihelion_argument": "159.2594990255105",
        "aphelion_distance": "2.34612040142434",
        "perihelion_time": "2454540.587573322800",
        "mean_anomaly": "8.800590237354925",
        "mean_motion": ".4419647278566867",
        "equinox": "J2000",
        "orbit_class": {
            "orbit_class_type": "AMO",
            "orbit_class_description": "Near-Earth asteroid orbits similar to that of 1221 Amor",
            "orbit_class_range": "1.017 AU < q (perihelion) < 1.3 AU"
        }
    },
    "is_sentry_object": false
}